[{"OBJECT_NAME":"YAOGAN-43 01F","OBJECT_ID":"2024-148F","EPOCH":"2026-03-10T00:23:08.877408","MEAN_MOTION":15.29824616,"ECCENTRICITY":0.00057048,"INCLINATION":34.9925,"RA_OF_ASC_NODE":59.8891,"ARG_OF_PERICENTER":18.4862,"MEAN_ANOMALY":341.6062,"EPHEMERIS_TYPE":0,"CLASSIFICATION_TYPE":"U","NORAD_CAT_ID":60463,"ELEMENT_SET_NO":999,"REV_AT_EPOCH":8707,"BSTAR":0.00058388219,"MEAN_MOTION_DOT":0.00017308,"MEAN_MOTION_DDOT":0},{"OBJECT_NAME":"STARLINK-34188","OBJECT_ID":"2025-113P","EPOCH":"2026-03-09T07:13:33.376800","MEAN_MOTION":15.30199588,"ECCENTRICITY":0.00016837,"INCLINATION":53.1584,"RA_OF_ASC_NODE":93.0785,"ARG_OF_PERICENTER":82.9775,"MEAN_ANOMALY":277.1417,"EPHEMERIS_TYPE":0,"CLASSIFICATION_TYPE":"U","NORAD_CAT_ID":64183,"ELEMENT_SET_NO":999,"REV_AT_EPOCH":4500,"BSTAR":0.00058557676,"MEAN_MOTION_DOT":0.00017023,"MEAN_MOTION_DDOT":0}]
